CZ-6A DEB               
1 54478U 22151HE  22340.76356131  .00090620  00000+0  21866-2 0  9993
2 54478  98.7156 348.3147 0342344 183.6655 176.2051 14.97777626  3438
CZ-6A DEB               
1 54479U 22151HF  22340.58709785  .00003769  00000+0  12771-2 0  9994
2 54479  98.7020 345.3566 0129510 241.7486 117.0575 14.32721826  3262
CZ-6A DEB               
1 54480U 22151HG  22341.44356515  .00000460  00000+0  15995-3 0  9998
2 54480  98.7027 346.3384 0132568 232.1961 126.7161 14.35573967  3395
CZ-6A DEB               
1 54481U 22151HH  22341.01169742  .00164196  00000+0  66194-2 0  9999
2 54481  98.6314 347.7019 0292669 189.4435 170.1209 14.93017479  3473
CZ-6A DEB               
1 54482U 22151HJ  22340.95351399  .00004354  00000+0  13831-2 0  9992
2 54482  98.7037 345.8602 0129289 232.7408 126.1929 14.35792171  3322
CZ-6A DEB               
1 54483U 22151HK  22341.48770529  .00011701  00000+0  36760-2 0  9992
2 54483  98.6958 346.3934 0107464 218.5362 140.8117 14.37355784  3408
CZ-6A DEB               
1 54484U 22151HL  22340.72566859  .00004713  00000+0  14729-2 0  9994
2 54484  98.6901 345.5852 0124072 228.1732 130.8807 14.36892710  2980
CZ-6A DEB               
1 54485U 22151HM  22340.64332240  .00006584  00000+0  23916-2 0  9997
2 54485  98.6245 344.7848 0122524 248.2433 110.5672 14.29488817  2963
CZ-6A DEB               
1 54486U 22151HN  22340.72807466  .00003775  00000+0  21394-2 0  9991
2 54486  98.8213 345.2778 0100004  65.8696 295.2893 14.08112962  2937
CZ-6A DEB               
1 54487U 22151HP  22340.69719992  .00005095  00000+0  16930-2 0  9991
2 54487  98.7108 345.5928 0114777 231.8785 127.2009 14.34480784  2961
CZ-6A DEB               
1 54488U 22151HQ  22341.06484497  .00487984  00000+0  10111-1 0  9998
2 54488  98.7916 349.4872 0280799 179.6581 180.4892 15.12236587  3184
CZ-6A DEB               
1 54489U 22151HR  22340.50808108  .00004110  00000+0  13884-2 0  9993
2 54489  98.6996 345.2824 0122826 238.8136 120.0961 14.33270235  2943
CZ-6A DEB               
1 54490U 22151HS  22340.73983571  .00005556  00000+0  17472-2 0  9990
2 54490  98.7033 345.6542 0130215 233.0707 125.8494 14.36087411  2984
CZ-6A DEB               
1 54491U 22151HT  22340.83037918  .00000155  00000+0  11476-3 0  9996
2 54491  98.9143 345.8980 0109696 306.8872  52.2281 14.06249746  2949
CZ-6A DEB               
1 54492U 22151HU  22340.77998930  .00000031  00000+0  52706-4 0  9995
2 54492  98.8593 344.9653 0123901  19.8251 340.7665 13.92824396  2880
CZ-6A DEB               
1 54493U 22151HV  22340.91616608  .00000698  00000+0  60042-3 0  9991
2 54493  98.9013 344.9054 0200971 340.2599  19.0856 13.81097186  2888
CZ-6A DEB               
1 54494U 22151HW  22340.67087149  .00006065  00000+0  18151-2 0  9994
2 54494  99.0143 347.7666 0104142 200.0745 159.6331 14.40136820  2990
CZ-6A DEB               
1 54495U 22151HX  22340.50278535  .00009385  00000+0  15898-2 0  9991
2 54495  98.7766 346.6390 0223580 222.5357 135.8330 14.54357906  2996
CZ-6A DEB               
1 54496U 22151HY  22340.70671804  .00003045  00000+0  11657-2 0  9996
2 54496  99.2005 348.4188 0146728 260.8319  97.6235 14.25679888  2965
CZ-6A DEB               
1 54497U 22151HZ  22340.72946412  .00000666  00000+0  41254-3 0  9992
2 54497  98.8147 345.2275 0050094  10.8901 349.3341 14.07967493  2923
CZ-6A DEB               
1 54498U 22151JA  22340.64481393  .00003431  00000+0  14695-2 0  9997
2 54498  98.8377 345.9793 0034174 157.8149 202.4517 14.25213972  2962
CZ-6A DEB               
1 54499U 22151JB  22340.73767671  .00000208  00000+0  67797-4 0  9996
2 54499  98.7076 346.0098 0138171 209.7436 149.5848 14.44259245  3273
CZ-6A DEB               
1 54500U 22151JC  22340.91963445  .00001883  00000+0  87800-3 0  9992
2 54500  98.9601 346.7371 0128522 276.2350  82.4197 14.17422323  3312
CZ-6A DEB               
1 54501U 22151JD  22340.73607295  .00003341  00000+0  12811-2 0  9991
2 54501  98.6457 344.4978 0247071 275.8367  81.4694 14.15827905  3270
CZ-6A DEB               
1 54502U 22151JE  22340.70279596  .00079429  00000+0  22939-1 0  9999
2 54502  98.6215 345.1803 0123796 233.5824 125.3897 14.39719034  3377
CZ-6A DEB               
1 54503U 22151JF  22340.85747786  .00000378  00000+0  24031-3 0  9991
2 54503  98.6976 344.6378 0053749  36.0881 324.3898 14.08776762  3225
CZ-6A DEB               
1 54504U 22151JG  22340.76296200  .00000686  00000+0  40918-3 0  9996
2 54504  98.8360 345.4810 0041509 347.8289  12.1875 14.10129460  3284
CZ-6A DEB               
1 54505U 22151JH  22340.70089330  .00002567  00000+0  10571-2 0  9996
2 54505  99.0146 347.2144 0081996 248.5975 110.6441 14.26013828  3261
CZ-6A DEB               
1 54506U 22151JJ  22340.59421856  .00001613  00000+0  85698-3 0  9991
2 54506  98.9449 346.0746 0113992 291.9763  66.9326 14.11701655  3216
CZ-6A DEB               
1 54507U 22151JK  22340.97725117  .00070341  00000+0  20490-1 0  9992
2 54507  98.6047 345.3524 0112386 227.9483 131.2101 14.40124645  3338
CZ-6A DEB               
1 54508U 22151JL  22340.60668116  .00009106  00000+0  28996-2 0  9999
2 54508  98.6926 345.4339 0122697 232.4876 126.5107 14.35812334  3272
CZ-6A DEB               
1 54509U 22151JM  22340.65666414  .00000163  00000+0  15116-3 0  9999
2 54509  98.8033 344.4507 0126515   6.9871 353.3016 13.91666643  3182
CZ-6A DEB               
1 54510U 22151JN  22341.28902930  .00001946  00000+0  71371-3 0  9992
2 54510  98.7689 346.4801 0072489 155.7305 204.7321 14.32475100  3364
CZ-6A DEB               
1 54511U 22151JP  22340.77640448  .00000371  00000+0  29399-3 0  9993
2 54511  98.7976 344.5829 0135462  35.1488 325.8518 13.93037733  3205
CZ-6A DEB               
1 54512U 22151JQ  22340.73943164  .00003595  00000+0  11106-2 0  9998
2 54512  98.6743 345.4667 0145164 237.0814 121.6339 14.36061926  3294
CZ-6A DEB               
1 54513U 22151JR  22341.27311329  .00000898  00000+0  27556-3 0  9991
2 54513  98.4975 344.9032 0156833 234.5799 124.0658 14.37370599  3379
CZ-6A DEB               
1 54514U 22151JS  22340.97569674  .00000420  00000+0  15942-3 0  9993
2 54514  98.7960 346.4203 0080697 159.5348 200.9100 14.34406269  3326
CZ-6A DEB               
1 54515U 22151JT  22340.95373529  .00000261  00000+0  98491-4 0  9998
2 54515  98.6191 345.3044 0120803 228.7627 130.3100 14.35683679  3325
CZ-6A DEB               
1 54516U 22151JU  22340.57467960  .00000717  00000+0  22667-3 0  9997
2 54516  98.6178 344.9916 0145690 233.7946 124.9697 14.37500096  3272
CZ-6A DEB               
1 54517U 22151JV  22340.67256661  .00004177  00000+0  13227-2 0  9998
2 54517  98.7031 345.5782 0130045 233.6486 125.2641 14.35909869  3289
CZ-6A DEB               
1 54518U 22151JW  22340.58246473  .00000750  00000+0  31184-3 0  9995
2 54518  98.8620 346.0577 0134399 261.1363  97.4579 14.24701766  3249
CZ-6A DEB               
1 54519U 22151JX  22340.96122116  .00001505  00000+0  48528-3 0  9994
2 54519  98.5747 345.0096 0140278 236.4227 122.3501 14.35285017  3385
CZ-6A DEB               
1 54520U 22151JY  22340.58820957  .00007397  00000+0  14315-2 0  9993
2 54520  98.7142 346.2716 0184444 209.7617 149.2987 14.53317046  3350
CZ-6A DEB               
1 54521U 22151JZ  22340.74152808  .00000502  00000+0  36989-3 0  9998
2 54521  98.7723 344.4671 0143194  46.7784 314.5232 13.95020742  3244
CZ-6A DEB               
1 54522U 22151KA  22340.95061824  .00000712  00000+0  48463-3 0  9992
2 54522  98.7791 344.8731 0123313  48.8879 312.2855 13.99420168  3291
CZ-6A DEB               
1 54523U 22151KB  22340.97665748  .00004780  00000+0  12357-2 0  9991
2 54523  98.7965 346.7710 0165123 227.6697 131.0405 14.42554725  3387
CZ-6A DEB               
1 54524U 22151KC  22340.99400641  .00003077  00000+0  95496-3 0  9997
2 54524  98.5206 344.7777 0124306 224.9684 134.1384 14.37459101  3396
CZ-6A DEB               
1 54525U 22151KD  22340.78937852  .00000180  00000+0  13631-3 0  9997
2 54525  98.7957 345.0292 0070367  27.0600 333.4209 14.04525619  3229
CZ-6A DEB               
1 54526U 22151KE  22340.72489446  .00000435  00000+0  27567-3 0  9999
2 54526  98.8081 345.1927 0056436  36.8967 323.6064 14.08227005  3222
CZ-6A DEB               
1 54527U 22151KF  22340.85464378  .00001701  00000+0  79645-3 0  9992
2 54527  98.7728 345.6058 0038839 111.1160 249.4176 14.21165657  3249
CZ-6A DEB               
1 54528U 22151KG  22340.94457689  .00001882  00000+0  61632-3 0  9997
2 54528  98.5997 345.1923 0109962 221.9989 137.2727 14.36259987  3328
CZ-6A DEB               
1 54529U 22151KH  22340.78748795  .00000103  00000+0  84312-4 0  9997
2 54529  98.8030 345.2395 0045940   5.5679 354.5992 14.08707345  3234
CZ-6A DEB               
1 54530U 22151KJ  22340.73937036  .00000158  00000+0  11071-3 0  9993
2 54530  98.8144 345.3743 0032960   6.2266 353.9309 14.11474135  3235
CZ-6A DEB               
1 54531U 22151KK  22340.66636543  .00005050  00000+0  16608-2 0  9991
2 54531  98.6312 345.1168 0091697 208.7465 150.8650 14.36294403  3285
CZ-6A DEB               
1 54532U 22151KL  22340.95878419  .00000752  00000+0  21237-3 0  9993
2 54532  98.7261 346.3249 0136975 211.3943 147.9018 14.43498118  3364
CZ-6A DEB               
1 54533U 22151KM  22340.84840513  .00000108  00000+0  91334-4 0  9997
2 54533  98.8099 345.2046 0069621  31.8945 328.6410 14.05224130  3237
1998-067UL              
1 54534U 98067UL  22340.86252666  .00085099  00000+0  14432-2 0  9999
2 54534  51.6411 201.1483 0007784 141.2081 329.2667 15.50741142   750
1998-067UM              
1 54535U 98067UM  22340.93144692  .00068763  00000+0  11689-2 0  9997
2 54535  51.6417 200.8063 0007570 139.8012 355.7646 15.50771398   765
1998-067UN              
1 54536U 98067UN  22340.92207118  .00031682  00000+0  54609-3 0  9990
2 54536  51.6420 200.8461 0007560 139.2681 304.0068 15.50732033   721
